OBJECT_NAME,OBJECT_ID,EPOCH,MEAN_MOTION,ECCENTRICITY,INCLINATION,RA_OF_ASC_NODE,ARG_OF_PERICENTER,MEAN_ANOMALY,EPHEMERIS_TYPE,CLASSIFICATION_TYPE,NORAD_CAT_ID,ELEMENT_SET_NO,REV_AT_EPOCH,BSTAR,MEAN_MOTION_DOT,MEAN_MOTION_DDOT
QIANFAN-175,2026-124L,2026-06-20T06:19:14.724768,14.21339818,.00036428,88.9983,1.6838,160.6873,199.4456,0,U,69392,999,225,.3671557E-4,.95E-6,0
QIANFAN-176,2026-124M,2026-06-20T06:15:24.634656,14.21841148,.00025856,88.9983,1.6834,162.4264,197.7017,0,U,69393,999,225,.35668862E-4,.93E-6,0
QIANFAN-177,2026-124N,2026-06-20T06:10:04.025856,14.22730526,.00038585,88.9983,1.6828,138.0309,222.1179,0,U,69394,999,225,.22470766E-4,.65E-6,0
QIANFAN-178,2026-124P,2026-06-20T06:12:23.388192,14.22274516,.00030722,88.9983,1.6830,146.7498,213.3887,0,U,69395,999,225,.11087388E-3,.261E-5,0
QIANFAN-179,2026-124Q,2026-06-20T06:06:54.782208,14.23097169,.00031155,88.9983,1.6824,142.3016,217.8395,0,U,69396,999,225,.22538097E-4,.65E-6,0
QIANFAN-180,2026-124R,2026-06-20T06:04:46.230240,14.23618695,.0003309,88.9983,1.6823,154.8078,205.3276,0,U,69397,999,225,.22476294E-4,.66E-6,0
QIANFAN-181,2026-124S,2026-06-20T07:00:27.911808,14.16649438,.00026481,88.9983,1.6881,109.7220,250.4254,0,U,69398,999,225,.29705351E-4,.74E-6,0
QIANFAN-182,2026-124T,2026-06-20T04:59:14.355456,14.18738536,.00026137,88.9984,1.6941,133.4042,226.7366,0,U,69399,999,224,.32851202E-4,.83E-6,0
QIANFAN-183,2026-125A,2026-06-20T05:39:22.554144,14.13053743,.00133051,88.9952,280.0998,162.8418,197.3221,0,U,69401,999,213,-.11694556E+1,-.2022735E-1,0
QIANFAN-184,2026-125B,2026-06-20T03:48:51.920064,14.11639509,.0020816,88.9945,280.1128,159.8124,200.3890,0,U,69402,999,212,-.11515463E+1,-.1948538E-1,0
QIANFAN-185,2026-125C,2026-06-19T19:20:32.899776,14.11744531,.00206203,88.9950,280.1526,152.1571,208.0723,0,U,69403,999,207,-.10872817E+1,-.1850064E-1,0
QIANFAN-186,2026-125D,2026-06-19T17:32:24.623520,14.14978163,.0016523,88.9911,280.1598,183.2578,176.8505,0,U,69404,999,206,-.12050667E+1,-.2150127E-1,0
QIANFAN-187,2026-125E,2026-06-19T17:27:48.185856,14.16025362,.00176845,88.9950,280.1573,186.7116,173.3838,0,U,69405,999,206,-.11814077E+1,-.2149587E-1,0
QIANFAN-188,2026-125F,2026-06-19T19:02:09.276288,14.16598732,.0017376,88.9989,280.1491,182.4114,177.6993,0,U,69406,999,207,-.11264107E+1,-.207705E-1,0
QIANFAN-189,2026-125G,2026-06-19T17:19:35.025888,14.14417547,.00149802,88.9947,280.1586,167.6028,192.5531,0,U,69407,999,206,-.10384278E+1,-.1853945E-1,0
QIANFAN-190,2026-125H,2026-06-19T22:23:29.648256,14.16273042,.00174385,88.9967,280.1343,185.5805,174.5192,0,U,69408,999,209,-.11418107E+1,-.2091624E-1,0
QIANFAN-191,2026-125J,2026-06-19T17:10:22.344960,14.15407399,.00124435,88.9947,280.1576,170.0084,190.1353,0,U,69409,999,206,-.99941962E+0,-.1819046E-1,0
QIANFAN-192,2026-125K,2026-06-20T04:56:31.701408,14.15802162,.00126626,88.9949,280.1013,156.7497,203.4267,0,U,69410,999,213,-.94714531E+0,-.1722977E-1,0
QIANFAN-193,2026-125L,2026-06-20T04:51:44.187264,14.15759213,.00167301,88.9948,280.1006,173.7424,186.3976,0,U,69411,999,213,-.94875524E+0,-.1725353E-1,0
QIANFAN-194,2026-125M,2026-06-19T18:40:34.354560,14.16835506,.00123642,88.9947,280.1486,186.3713,173.7320,0,U,69412,999,206,-.96674698E+0,-.1787424E-1,0
QIANFAN-195,2026-125N,2026-06-19T18:39:45.471168,14.18838348,.00148432,88.9935,280.1519,185.9073,174.1944,0,U,69413,999,207,-.10715046E+1,-.206044E-1,0
QIANFAN-196,2026-125P,2026-06-20T06:24:18.748224,14.17941681,.00177349,88.9948,280.0915,183.8257,176.2800,0,U,69414,999,214,-.94921904E+0,-.1812881E-1,0
QIANFAN-197,2026-125Q,2026-06-19T18:34:12.311040,14.18379903,.00090014,88.9949,280.1479,172.9343,187.1975,0,U,69415,999,206,-.10034247E+1,-.1921916E-1,0
QIANFAN-198,2026-125R,2026-06-19T18:35:06.600480,14.17990071,.00090533,88.9948,280.1483,170.9232,189.2123,0,U,69416,999,207,-.99689647E+0,-.1897356E-1,0
QIANFAN-199,2026-125S,2026-06-19T18:30:59.600160,14.19732489,.00146954,88.9945,280.1474,175.6046,184.5276,0,U,69417,999,207,-.97994831E+0,-.1926055E-1,0
QIANFAN-200,2026-125T,2026-06-19T20:35:36.024576,14.15539357,.00145643,88.9946,280.1421,173.5980,186.5397,0,U,69418,999,208,-.1040158E+1,-.1893052E-1,0
STARLINK-37537,2026-126A,2026-06-19T20:12:09.274464,15.75218056,.00011143,97.2831,30.9483,91.7906,268.3487,0,U,69420,999,316,.12196822E-2,.186036E-2,0
STARLINK-37585,2026-126B,2026-06-20T05:05:47.398560,15.75217586,.00012909,97.2845,31.3646,115.0014,245.1385,0,U,69421,999,322,.86918815E-3,.131689E-2,0
